#aV2013  6  2  0  0  0.00000000     288 DD+AD WGS84 FIT  NGA
## 1743      0.00000000   300.00000000 56445 0.0000000000000
+   31     1  2  3  4  5  6  7  8  9 10 11 12 13 14 15 16 17
+         18 19 20 21 22 23 24 25 26 27 28 29 31 32  0  0  0
+          0  0  0  0  0  0  0  0  0  0  0  0  0  0  0  0  0
+          0  0  0  0  0  0  0  0  0  0  0  0  0  0  0  0  0
+          0  0  0  0  0  0  0  0  0  0  0  0  0  0  0  0  0
++         2  2  2  2  2  2  2  2  2  2  2  2  2  2  2  2  2
++         2  2  2  2  2  2  2  2  2  2  2  2  2  2  2  0  0
++         0  0  0  0  0  0  0  0  0  0  0  0  0  0  0  0  0
++         0  0  0  0  0  0  0  0  0  0  0  0  0  0  0  0  0
++         0  0  0  0  0  0  0  0  0  0  0  0  0  0  0  0  0
%c cc cc ccc ccc cccc cccc cccc cccc ccccc ccccc ccccc ccccc
%c cc cc ccc ccc cccc cccc cccc cccc ccccc ccccc ccccc ccccc
%f  0.0000000  0.000000000  0.00000000000  0.000000000000000
%f  0.0000000  0.000000000  0.00000000000  0.000000000000000
%i    0    0    0    0      0      0      0      0         0
%i    0    0    0    0      0      0      0      0         0
/*      NGA, ST. LOUIS,MO.                                  
/*   EPHEMERIS COMPUTED FROM  1 DAYS OF DATA
/*   EPOCHA SMOOTHER  
/* CCCCCCCCCCCCCCCCCCCCCCCCCCCCCCCCCCCCCCCCCCCCCCCCCCCCCCCCC
*  2013  6  2  1 45  0.00000000                                                 
P  1  17623.459858   4608.712953  19344.498629     32.709902                    
V  1  10147.299134  22413.356077 -14484.475873      0.043277                    
P  2 -13612.721899 -23085.453806  -1263.704595    435.033468                    
V  2   1833.774529  -3088.790197  30867.288251      0.018241                    
P  3  18642.910407  10392.431637 -16458.374708    214.792019                    
V  3 -19645.585370   4010.771082 -20148.963080      0.049835                    
P  4  -5790.929348 -24294.830767   8341.374709    234.308439                    
V  4   8292.854202   8180.706403  28893.430333      0.103389                    
P  5  -8472.638575 -14318.895499 -20699.825726   -396.083458                    
V  5  14950.668953 -21659.485686   9013.759451     -0.008663                    
P  6  13087.737812  13482.406244 -18827.796140    206.182522                    
V  6 -23989.694981   1897.722227 -14881.573473     -0.167461                    
P  7  10670.434539 -11268.423119 -21469.861285    220.453038                    
V  7  12649.969191  24276.296351  -6735.160814      0.042002                    
P  8   4107.272348 -19710.945009 -16882.533626      6.511312                    
V  8   9157.687065  19851.231298 -21391.282802      0.002159                    
P  9  -5901.443925 -24393.549081  -9087.638249    244.978546                    
V  9   6625.503355   8687.618668 -29499.844539      0.026759                    
P 10   5887.316942 -23333.082111 -11054.980637    -81.988807                    
V 10  10236.108384  -9750.883113  27151.990146     -0.013622                    
P 11  22024.073666   9167.420206  11503.318443   -387.618904                    
V 11   7805.514177  13857.560394 -24760.029232     -0.035960                    
P 12 -17470.993180   2239.987673  19769.911790    137.048929                    
V 12  13406.944849 -21358.277287  14442.496560      0.020768                    
P 13  22616.757487  -5496.090295 -13060.064877    113.537399                    
V 13  15859.611775   3956.439801  25951.677275     -0.036289                    
P 14  -4649.560495  14471.924074  21969.139714    220.631313                    
V 14 -27165.032334  -3504.503187  -3618.392367     -0.002617                    
P 15 -25985.721702  -3902.138144  -4760.409853   -121.570300                    
V 15   6031.877094  -3036.870728 -30371.770817     -0.015887                    
P 16   6871.348382  14491.477112 -21123.458996   -251.697440                    
V 16 -16180.962137  21350.520367   9725.229668      0.003078                    
P 17   4885.495757 -14699.628546  21772.039474     13.296184                    
V 17  26999.381631   2768.071036  -4461.310236     -0.040039                    
P 18 -15852.009437  20818.902621  -2828.608775    256.582640                    
V 18  -1290.043896  -5739.380547 -30946.840676      0.019472                    
P 19  24073.527112   8826.625015  -7823.990942   -377.726482                    
V 19  -9908.016038    867.174398 -29438.281807     -0.030257                    
P 20  18840.779126  -7482.319944  16954.393737    101.257868                    
V 20  -8774.189452  20306.464260  18594.054002      0.020883                    
P 21  -8369.161514  15205.583171 -19394.460194   -300.846980                    
V 21 -13613.407202 -22380.325807 -11863.334788     -0.021274                    
P 22  -8517.868495  23930.133889   7696.320512    170.081999                    
V 22  -8359.214191   6043.887253 -28927.628844      0.015194                    
P 23  26522.304328   -941.959234  -3505.011038     80.129049                    
V 23   4330.953267   2857.587955  30975.182390     -0.035903                    
P 24 -18240.948094  -8367.185434  17406.899445     -7.439518                    
V 24  -8821.276428 -20354.642949 -18972.448645     -0.006683                    
P 25 -18770.528861  14152.353450  12211.886975    104.518934                    
V 25   6557.009462 -14318.376435  26650.148203      0.044596                    
P 26 -17250.615497 -13303.306888 -16061.724449     36.819891                    
V 26  19035.253761   1481.976872 -22266.178560      0.157005                    
P 27  16516.093685  12400.671742 -16704.115825     -0.087553                    
V 27 -21265.880086    921.376601 -20340.248031     -0.007277                    
P 28  12182.327674 -22989.094815   5415.667098    263.738849                    
V 28   5310.911787  -3750.782155 -31392.559046      0.032791                    
P 29 -23060.507462   5919.550705 -11672.228578    441.116147                    
V 29 -14627.799085  -3682.980719  26958.128275      0.034794                    
P 31   5659.058999  24462.752989   8375.344439    316.376035                    
V 31  -6577.894446  -8432.174460  29940.656948      0.012488                    
P 32  16256.109373   3265.396761  20774.457794   -558.245270                    
V 32 -15118.781192  21473.258981   9025.612429     -0.009958                    
EOF
